NORAD_CAT_ID,OBJECT_NAME,OBJECT_TYPE,EPOCH,MEAN_MOTION,ECCENTRICITY,INCLINATION,RA_OF_ASC_NODE,ARG_OF_PERICENTER,MEAN_ANOMALY,BSTAR,MEAN_MOTION_DOT,MEAN_MOTION_DDOT,TLE_LINE0,TLE_LINE1,TLE_LINE2,SEMIMAJOR_AXIS,PERIOD,APOGEE,PERIGEE,DECAYED
55925.0,STARLINK-5922,PAYLOAD,2024-05-16 14:00:01,14.98316711,0.0003066,70.0007,173.7871,273.8411,23.731,0.00046746,5.487e-05,0.0,0 STARLINK-5922,1 55925U 23037M   24137.58334491  .00005487  00000-0  46746-3 0  9999,2 55925  70.0007 173.7871 0003066 273.8411  23.7310 14.98316711 64655,6950.234,96.108,574.23,569.968,0.0
55925.0,STARLINK-5922,PAYLOAD,2024-05-16 22:00:00,14.98288203,0.0003029,70.0009,172.9467,267.3956,27.6632,0.005879,0.0007069,0.0,0 STARLINK-5922,1 55925U 23037M   24137.91667824  .00070690  00000-0  58790-2 0  9994,2 55925  70.0009 172.9467 0003029 267.3956  27.6632 14.98288203  5761,6950.322,96.11,574.292,570.082,0.0
55925.0,STARLINK-5922,PAYLOAD,2024-05-17 00:00:00,14.98294047,0.0003046,70.0008,172.7367,266.2296,118.1962,0.0067966,0.00081881,0.0,0 STARLINK-5922,1 55925U 23037M   24138.00001157  .00081881  00000-0  67966-2 0  9995,2 55925  70.0008 172.7367 0003046 266.2296 118.1962 14.98294047 64716,6950.304,96.109,574.286,570.052,0.0
55925.0,STARLINK-5922,PAYLOAD,2024-05-18 04:43:57,14.98346557,0.0002068,70.0014,169.7161,250.8782,109.2153,0.0016896,0.00020133,0.0,0 STARLINK-5922,1 55925U 23037M   24139.19718922  .00020133  00000-0  16896-2 0  9990,2 55925  70.0014 169.7161 0002068 250.8782 109.2153 14.98346557 64899,6950.142,96.106,573.444,570.569,0.0
55925.0,STARLINK-5922,PAYLOAD,2024-05-18 11:08:28,14.98332019,0.0002659,70.0018,169.0437,268.9908,91.0947,0.00066165,7.811e-05,0.0,0 STARLINK-5922,1 55925U 23037M   24139.46422341  .00007811  00000-0  66165-3 0  9990,2 55925  70.0018 169.0437 0002659 268.9908  91.0947 14.98332019 64930,6950.187,96.107,573.9,570.204,0.0
55925.0,STARLINK-5922,PAYLOAD,2024-05-18 19:09:09,14.98331045,0.0002894,70.0019,168.2022,271.104,88.9788,0.00041756,4.893e-05,0.0,0 STARLINK-5922,1 55925U 23037M   24139.79802341  .00004893  00000-0  41756-3 0  9994,2 55925  70.0019 168.2022 0002894 271.1040  88.9788 14.98331045 64640,6950.19,96.107,574.066,570.043,0.0
55925.0,STARLINK-5922,PAYLOAD,2024-05-19 04:45:57,14.983238,0.0002796,70.0007,167.1938,269.7088,90.3751,1.7931e-05,1.21e-06,0.0,0 STARLINK-5922,1 55925U 23037M   24140.19858743  .00000121  00000-0  17931-4 0  9996,2 55925  70.0007 167.1938 0002796 269.7088  90.3751 14.98323800 65049,6950.212,96.107,574.02,570.134,0.0
55925.0,STARLINK-5922,PAYLOAD,2024-05-19 11:10:30,14.98322375,0.0002807,69.9992,166.5204,269.4163,90.6674,2.5709e-05,2.14e-06,0.0,0 STARLINK-5922,1 55925U 23037M   24140.46563259  .00000214  00000-0  25709-4 0  9996,2 55925  69.9992 166.5204 0002807 269.4163  90.6674 14.98322375 64741,6950.216,96.107,574.032,570.131,0.0
55925.0,STARLINK-5922,PAYLOAD,2024-05-20 04:47:58,14.98330564,0.0002922,69.9989,164.6686,269.3779,90.7045,0.00016644,1.893e-05,0.0,0 STARLINK-5922,1 55925U 23037M   24141.19998645  .00001893  00000-0  16644-3 0  9999,2 55925  69.9989 164.6686 0002922 269.3779  90.7045 14.98330564 65192,6950.191,96.107,574.087,570.025,0.0
55925.0,STARLINK-5922,PAYLOAD,2024-05-20 11:12:31,14.98331372,0.0002949,69.9989,163.9951,269.1371,90.9451,0.00013998,1.578e-05,0.0,0 STARLINK-5922,1 55925U 23037M   24141.46702682  .00001578  00000-0  13998-3 0  9992,2 55925  69.9989 163.9951 0002949 269.1371  90.9451 14.98331372 64891,6950.189,96.107,574.103,570.004,0.0
55925.0,STARLINK-5922,PAYLOAD,2024-05-21 04:49:59,14.98329317,0.0003134,69.9984,162.1437,267.9042,92.1759,0.00022059,2.54e-05,0.0,0 STARLINK-5922,1 55925U 23037M   24142.20138706  .00002540  00000-0  22059-3 0  9993,2 55925  69.9984 162.1437 0003134 267.9042  92.1759 14.98329317 65346,6950.195,96.107,574.238,569.882,0.0
55925.0,STARLINK-5922,PAYLOAD,2024-05-21 08:02:15,14.98331395,0.000316,69.9984,161.8071,267.9032,92.1765,0.00021722,2.5e-05,0.0,0 STARLINK-5922,1 55925U 23037M   24142.33490657  .00002500  00000-0  21722-3 0  9995,2 55925  69.9984 161.8071 0003160 267.9032  92.1765 14.98331395 65025,6950.189,96.107,574.25,569.857,0.0
55925.0,STARLINK-5922,PAYLOAD,2024-05-22 04:52:00,14.98336912,0.0003121,69.9992,159.619,268.7644,91.3158,0.0001149,1.278e-05,0.0,0 STARLINK-5922,1 55925U 23037M   24143.20278202  .00001278  00000-0  11490-3 0  9994,2 55925  69.9992 159.6190 0003121 268.7644  91.3158 14.98336912 65494,6950.172,96.107,574.206,569.867,0.0
55925.0,STARLINK-5922,PAYLOAD,2024-05-22 11:16:32,14.98337934,0.0003124,69.9985,158.9459,266.9203,93.1599,0.00012744,1.428e-05,0.0,0 STARLINK-5922,1 55925U 23037M   24143.46982058  .00001428  00000-0  12744-3 0  9993,2 55925  69.9985 158.9459 0003124 266.9203  93.1599 14.98337934 65191,6950.168,96.106,574.205,569.862,0.0
55925.0,STARLINK-5922,PAYLOAD,2024-05-23 04:54:01,14.98332151,0.0002966,69.9988,157.0941,265.2935,94.7885,6.6112e-05,6.96e-06,0.0,0 STARLINK-5922,1 55925U 23037M   24144.20418314  .00000696  00000-0  66112-4 0  9990,2 55925  69.9988 157.0941 0002966 265.2935  94.7885 14.98332151 65648,6950.186,96.107,574.113,569.99,0.0
55925.0,STARLINK-5922,PAYLOAD,2024-05-23 11:18:33,14.98331682,0.0002957,69.9989,156.4207,268.6496,91.4324,4.2594e-05,4.15e-06,0.0,0 STARLINK-5922,1 55925U 23037M   24144.47122321  .00000415  00000-0  42594-4 0  9996,2 55925  69.9989 156.4207 0002957 268.6496  91.4324 14.98331682 65343,6950.188,96.107,574.108,569.998,0.0
55925.0,STARLINK-5922,PAYLOAD,2024-05-24 04:56:01,14.98334992,0.0003016,69.9986,154.5691,267.5553,92.5261,5.4403e-05,5.56e-06,0.0,0 STARLINK-5922,1 55925U 23037M   24145.20557860  .00000556  00000-0  54403-4 0  9996,2 55925  69.9986 154.5691 0003016 267.5553  92.5261 14.98334992 65793,6950.177,96.107,574.139,569.946,0.0
55925.0,STARLINK-5922,PAYLOAD,2024-05-24 09:44:25,14.98337303,0.0002966,69.9986,154.0641,265.1041,94.9779,7.799e-05,8.38e-06,0.0,0 STARLINK-5922,1 55925U 23037M   24145.40585558  .00000838  00000-0  77990-4 0  9992,2 55925  69.9986 154.0641 0002966 265.1041  94.9779 14.98337303 65487,6950.17,96.107,574.097,569.974,0.0
55925.0,STARLINK-5922,PAYLOAD,2024-05-25 04:58:03,14.98327604,0.0002902,69.9987,152.044,260.7093,99.3738,4.1731e-05,4.05e-06,0.0,0 STARLINK-5922,1 55925U 23037M   24146.20698133  .00000405  00000-0  41731-4 0  9999,2 55925  69.9987 152.0440 0002902 260.7093  99.3738 14.98327604 65949,6950.2,96.107,574.082,570.048,0.0
55925.0,STARLINK-5922,PAYLOAD,2024-05-25 09:46:27,14.98320909,0.000278,69.9993,151.5403,266.545,93.5391,-1.8062e-05,-3.08e-06,0.0,0 STARLINK-5922,1 55925U 23037M   24146.40726814 -.00000308  00000-0 -18062-4 0  9994,2 55925  69.9993 151.5403 0002780 266.5450  93.5391 14.98320909 65979,6950.221,96.108,574.018,570.154,0.0
55925.0,STARLINK-5922,PAYLOAD,2024-05-25 19:23:15,14.98329673,0.0003147,69.998,150.5292,269.2848,90.795,3.6286e-05,3.4e-06,0.0,0 STARLINK-5922,1 55925U 23037M   24146.80782115  .00000340  00000-0  36286-4 0  9996,2 55925  69.9980 150.5292 0003147 269.2848  90.7950 14.98329673 66034,6950.194,96.107,574.246,569.872,0.0
55925.0,STARLINK-5922,PAYLOAD,2024-05-26 09:48:28,14.98332256,0.000316,69.998,149.0141,269.119,90.9607,1.9347e-05,1.38e-06,0.0,0 STARLINK-5922,1 55925U 23037M   24147.40865939  .00000138  00000-0  19347-4 0  9993,2 55925  69.9980 149.0141 0003160 269.1190  90.9607 14.98332256 65787,6950.186,96.107,574.247,569.855,0.0
55925.0,STARLINK-5922,PAYLOAD,2024-05-26 17:49:08,14.98329018,0.0003034,69.9982,148.1724,264.7338,95.3474,4.7599e-05,4.75e-06,0.0,0 STARLINK-5922,1 55925U 23037M   24147.74246053  .00000475  00000-0  47599-4 0  9994,2 55925  69.9982 148.1724 0003034 264.7338  95.3474 14.98329018 65830,6950.196,96.107,574.17,569.952,0.0
55925.0,STARLINK-5922,PAYLOAD,2024-05-27 05:02:05,14.9832743,0.0003182,69.9981,146.9942,269.1752,90.9043,6.663e-05,7.02e-06,0.0,0 STARLINK-5922,1 55925U 23037M   24148.20978157  .00000702  00000-0  66630-4 0  9993,2 55925  69.9981 146.9942 0003182 269.1752  90.9043 14.98327430 66245,6950.201,96.107,574.277,569.854,0.0
55925.0,STARLINK-5922,PAYLOAD,2024-05-27 09:50:29,14.98328753,0.0003176,69.9981,146.4892,269.263,90.8166,7.7145e-05,8.28e-06,0.0,0 STARLINK-5922,1 55925U 23037M   24148.41006077  .00000828  00000-0  77145-4 0  9991,2 55925  69.9981 146.4892 0003176 269.2630  90.8166 14.98328753 65932,6950.197,96.107,574.269,569.854,0.0
55925.0,STARLINK-5922,PAYLOAD,2024-05-28 05:04:05,14.98333365,0.0003164,69.9982,144.4697,269.851,90.2286,7.9585e-05,8.57e-06,0.0,0 STARLINK-5922,1 55925U 23037M   24149.21117726  .00000857  00000-0  79585-4 0  9996,2 55925  69.9982 144.4697 0003164 269.8510  90.2286 14.98333365 66397,6950.182,96.107,574.247,569.848,0.0
55925.0,STARLINK-5922,PAYLOAD,2024-05-28 09:52:29,14.98334457,0.0003178,69.9982,143.9647,270.024,90.0555,7.7047e-05,8.26e-06,0.0,0 STARLINK-5922,1 55925U 23037M   24149.41145618  .00000826  00000-0  77047-4 0  9996,2 55925  69.9982 143.9647 0003178 270.0240  90.0555 14.98334457 66081,6950.179,96.107,574.253,569.835,0.0
55925.0,STARLINK-5922,PAYLOAD,2024-05-29 05:06:06,14.98329128,0.0003071,69.9984,141.9445,269.4936,90.5871,3.633e-05,3.4e-06,0.0,0 STARLINK-5922,1 55925U 23037M   24150.21257985  .00000340  00000-0  36330-4 0  9998,2 55925  69.9984 141.9445 0003071 269.4936  90.5871 14.98329128 66549,6950.196,96.107,574.195,569.926,0.0
55925.0,STARLINK-5922,PAYLOAD,2024-05-29 09:54:31,14.98329501,0.0003065,69.9984,141.4395,269.3143,90.7665,3.7291e-05,3.52e-06,0.0,0 STARLINK-5922,1 55925U 23037M   24150.41285956  .00000352  00000-0  37291-4 0  9999,2 55925  69.9984 141.4395 0003065 269.3143  90.7665 14.98329501 66234,6950.194,96.107,574.19,569.929,0.0
55925.0,STARLINK-5922,PAYLOAD,2024-05-30 05:08:07,14.9833409,0.0003052,69.9984,139.4197,266.5541,93.5269,2.7628e-05,2.37e-06,0.0,0 STARLINK-5922,1 55925U 23037M   24151.21397612  .00000237  00000-0  27628-4 0  9996,2 55925  69.9984 139.4197 0003052 266.5541  93.5269 14.98334090 66698,6950.18,96.107,574.166,569.924,0.0
